*******************************************************************************
Ephemeris / WWW_USER Mon Mar 24 09:21:43 2025 Pasadena, USA      / Horizons    
*******************************************************************************
Target body name: 341764 (2007 VZ326)             {source: JPL#18}
Center body name: Earth (399)                     {source: DE441}
Center-site name: Mauna Kea
*******************************************************************************
Start time      : A.D. 2018-Sep-13 04:36:00.0000 UT      
Stop  time      : A.D. 2018-Sep-13 15:59:00.0000 UT      
Step-size       : 1 minutes
*******************************************************************************
Target pole/equ : undefined
Target radii    : undefined                                                    
Center geodetic : 204.5278, 19.8260847, 4.21024   {E-lon(deg),Lat(deg),Alt(km)}
Center cylindric: 204.5278, 6006.35451, 2151.0229 {E-lon(deg),Dxy(km),Dz(km)}
Center pole/equ : ITRF93                          {East-longitude positive}
Center radii    : 6378.137, 6378.137, 6356.752 km {Equator_a, b, pole_c}       
Target primary  : Sun
Vis. interferer : MOON (R_eq= 1737.400) km        {source: DE441}
Rel. light bend : Sun                             {source: DE441}
Rel. lght bnd GM: 1.3271E+11 km^3/s^2                                          
Small-body perts: Yes                             {source: SB441-N16}
Atmos refraction: NO (AIRLESS)
RA format       : HMS
Time format     : CAL 
Calendar mode   : Mixed Julian/Gregorian
RTS-only print  : NO       
EOP file        : eop.250321.p250617                                           
EOP coverage    : DATA-BASED 1962-JAN-20 TO 2025-MAR-21. PREDICTS-> 2025-JUN-16
Units conversion: 1 au= 149597870.700 km, c= 299792.458 km/s, 1 day= 86400.0 s 
Table cut-offs 1: Elevation (-90.0deg=NO ),Airmass (>38.000=NO), Daylight (YES)
Table cut-offs 2: Solar elongation (  0.0,180.0=NO ),Local Hour Angle( 0.0=NO )
Table cut-offs 3: RA/DEC angular rate (     0.0=NO )                           
*******************************************************************************
Initial IAU76/J2000 heliocentric ecliptic osculating elements (au, days, deg.):
  EPOCH=  2458738.5 ! 2019-Sep-12.00 (TDB)         Residual RMS= .13886        
   EC= .1008373990761695   QR= 2.768240023430626   TP= 2458584.3440952813      
   OM= 228.7009686323446   W=  245.4004729743531   IN= 4.232471987434818       
  Equivalent ICRF heliocentric cartesian coordinates (au, au/d):
   X=-2.388613100272569E+00  Y= 1.431394755664809E+00  Z= 3.975078424350988E-01
  VX=-6.081658482309184E-03 VY=-8.102092841560219E-03 VZ=-3.413222734767960E-03
Asteroid physical parameters (km, seconds, rotational period in hours):        
   GM= n.a.                RAD= n.a.               ROTPER= n.a.                
   H= 16.54                G= .150                 B-V= n.a.                   
                           ALBEDO= n.a.            STYP= n.a.                  
*******************************************************************************
 Date__(UT)__HR:MN     R.A._________(ICRF)_________DEC
******************************************************
$$SOE
 2018-Sep-13 04:36 Cm  05 52 53.997397 +22 01 04.97586
 2018-Sep-13 04:37 Cm  05 52 54.043394 +22 01 04.92940
 2018-Sep-13 04:38 Cm  05 52 54.089391 +22 01 04.88295
 2018-Sep-13 04:39 Cm  05 52 54.135388 +22 01 04.83653
 2018-Sep-13 04:40 Cm  05 52 54.181385 +22 01 04.79012
 2018-Sep-13 04:41 Cm  05 52 54.227381 +22 01 04.74374
 2018-Sep-13 04:42 Cm  05 52 54.273377 +22 01 04.69737
 2018-Sep-13 04:43 Cm  05 52 54.319372 +22 01 04.65103
 2018-Sep-13 04:44 Cm  05 52 54.365368 +22 01 04.60470
 2018-Sep-13 04:45 Cm  05 52 54.411363 +22 01 04.55840
 2018-Sep-13 04:46 Cm  05 52 54.457357 +22 01 04.51211
 2018-Sep-13 04:47 Cm  05 52 54.503351 +22 01 04.46585
 2018-Sep-13 04:48 Cm  05 52 54.549345 +22 01 04.41960
 2018-Sep-13 04:49 Cm  05 52 54.595339 +22 01 04.37338
 2018-Sep-13 04:50 Nm  05 52 54.641331 +22 01 04.32717
 2018-Sep-13 04:51 Nm  05 52 54.687324 +22 01 04.28098
 2018-Sep-13 04:52 Nm  05 52 54.733316 +22 01 04.23482
 2018-Sep-13 04:53 Nm  05 52 54.779308 +22 01 04.18867
 2018-Sep-13 04:54 Nm  05 52 54.825299 +22 01 04.14254
 2018-Sep-13 04:55 Nm  05 52 54.871289 +22 01 04.09644
 2018-Sep-13 04:56 Nm  05 52 54.917279 +22 01 04.05035
 2018-Sep-13 04:57 Nm  05 52 54.963269 +22 01 04.00428
 2018-Sep-13 04:58 Nm  05 52 55.009258 +22 01 03.95824
 2018-Sep-13 04:59 Nm  05 52 55.055246 +22 01 03.91221
 2018-Sep-13 05:00 Nm  05 52 55.101234 +22 01 03.86620
 2018-Sep-13 05:01 Nm  05 52 55.147221 +22 01 03.82021
 2018-Sep-13 05:02 Nm  05 52 55.193207 +22 01 03.77424
 2018-Sep-13 05:03 Nm  05 52 55.239193 +22 01 03.72830
 2018-Sep-13 05:04 Nm  05 52 55.285178 +22 01 03.68237
 2018-Sep-13 05:05 Nm  05 52 55.331162 +22 01 03.63646
 2018-Sep-13 05:06 Nm  05 52 55.377146 +22 01 03.59057
 2018-Sep-13 05:07 Nm  05 52 55.423129 +22 01 03.54470
 2018-Sep-13 05:08 Nm  05 52 55.469111 +22 01 03.49885
 2018-Sep-13 05:09 Nm  05 52 55.515093 +22 01 03.45302
 2018-Sep-13 05:10 Nm  05 52 55.561073 +22 01 03.40721
 2018-Sep-13 05:11 Nm  05 52 55.607053 +22 01 03.36142
 2018-Sep-13 05:12 Nm  05 52 55.653032 +22 01 03.31565
 2018-Sep-13 05:13 Nm  05 52 55.699011 +22 01 03.26990
 2018-Sep-13 05:14 Nm  05 52 55.744988 +22 01 03.22417
 2018-Sep-13 05:15 Am  05 52 55.790965 +22 01 03.17846
 2018-Sep-13 05:16 Am  05 52 55.836940 +22 01 03.13277
 2018-Sep-13 05:17 Am  05 52 55.882915 +22 01 03.08709
 2018-Sep-13 05:18 Am  05 52 55.928889 +22 01 03.04144
 2018-Sep-13 05:19 Am  05 52 55.974861 +22 01 02.99581
 2018-Sep-13 05:20 Am  05 52 56.020833 +22 01 02.95020
 2018-Sep-13 05:21 Am  05 52 56.066804 +22 01 02.90460
 2018-Sep-13 05:22 Am  05 52 56.112774 +22 01 02.85903
 2018-Sep-13 05:23 Am  05 52 56.158743 +22 01 02.81347
 2018-Sep-13 05:24 Am  05 52 56.204711 +22 01 02.76794
 2018-Sep-13 05:25 Am  05 52 56.250678 +22 01 02.72242
 2018-Sep-13 05:26 Am  05 52 56.296643 +22 01 02.67693
 2018-Sep-13 05:27 Am  05 52 56.342608 +22 01 02.63145
 2018-Sep-13 05:28 Am  05 52 56.388572 +22 01 02.58600
 2018-Sep-13 05:29 Am  05 52 56.434534 +22 01 02.54056
 2018-Sep-13 05:30 Am  05 52 56.480496 +22 01 02.49514
 2018-Sep-13 05:31 Am  05 52 56.526456 +22 01 02.44974
 2018-Sep-13 05:32 Am  05 52 56.572415 +22 01 02.40437
 2018-Sep-13 05:33 Am  05 52 56.618373 +22 01 02.35901
 2018-Sep-13 05:34 Am  05 52 56.664329 +22 01 02.31367
 2018-Sep-13 05:35 Am  05 52 56.710285 +22 01 02.26835
 2018-Sep-13 05:36 Am  05 52 56.756239 +22 01 02.22305
 2018-Sep-13 05:37 Am  05 52 56.802192 +22 01 02.17776
 2018-Sep-13 05:38 Am  05 52 56.848143 +22 01 02.13250
 2018-Sep-13 05:39 Am  05 52 56.894094 +22 01 02.08726
 2018-Sep-13 05:40 Am  05 52 56.940043 +22 01 02.04203
 2018-Sep-13 05:41  m  05 52 56.985990 +22 01 01.99683
 2018-Sep-13 05:42  m  05 52 57.031937 +22 01 01.95165
 2018-Sep-13 05:43  m  05 52 57.077882 +22 01 01.90648
 2018-Sep-13 05:44  m  05 52 57.123826 +22 01 01.86133
 2018-Sep-13 05:45  m  05 52 57.169768 +22 01 01.81621
 2018-Sep-13 05:46  m  05 52 57.215709 +22 01 01.77110
 2018-Sep-13 05:47  m  05 52 57.261648 +22 01 01.72601
 2018-Sep-13 05:48  m  05 52 57.307586 +22 01 01.68094
 2018-Sep-13 05:49  m  05 52 57.353523 +22 01 01.63589
 2018-Sep-13 05:50  m  05 52 57.399458 +22 01 01.59085
 2018-Sep-13 05:51  m  05 52 57.445391 +22 01 01.54584
 2018-Sep-13 05:52  m  05 52 57.491323 +22 01 01.50085
 2018-Sep-13 05:53  m  05 52 57.537254 +22 01 01.45587
 2018-Sep-13 05:54  m  05 52 57.583183 +22 01 01.41092
 2018-Sep-13 05:55  m  05 52 57.629110 +22 01 01.36598
 2018-Sep-13 05:56  m  05 52 57.675036 +22 01 01.32106
 2018-Sep-13 05:57  m  05 52 57.720960 +22 01 01.27616
 2018-Sep-13 05:58  m  05 52 57.766883 +22 01 01.23128
 2018-Sep-13 05:59  m  05 52 57.812804 +22 01 01.18642
 2018-Sep-13 06:00  m  05 52 57.858723 +22 01 01.14158
 2018-Sep-13 06:01  m  05 52 57.904641 +22 01 01.09675
 2018-Sep-13 06:02  m  05 52 57.950557 +22 01 01.05195
 2018-Sep-13 06:03  m  05 52 57.996471 +22 01 01.00716
 2018-Sep-13 06:04  m  05 52 58.042383 +22 01 00.96239
 2018-Sep-13 06:05  m  05 52 58.088294 +22 01 00.91765
 2018-Sep-13 06:06  m  05 52 58.134203 +22 01 00.87292
 2018-Sep-13 06:07  m  05 52 58.180111 +22 01 00.82820
 2018-Sep-13 06:08  m  05 52 58.226016 +22 01 00.78351
 2018-Sep-13 06:09  m  05 52 58.271920 +22 01 00.73884
 2018-Sep-13 06:10  m  05 52 58.317822 +22 01 00.69418
 2018-Sep-13 06:11  m  05 52 58.363722 +22 01 00.64954
 2018-Sep-13 06:12  m  05 52 58.409620 +22 01 00.60492
 2018-Sep-13 06:13  m  05 52 58.455517 +22 01 00.56032
 2018-Sep-13 06:14  m  05 52 58.501411 +22 01 00.51574
 2018-Sep-13 06:15  m  05 52 58.547304 +22 01 00.47117
 2018-Sep-13 06:16  m  05 52 58.593194 +22 01 00.42663
 2018-Sep-13 06:17  m  05 52 58.639083 +22 01 00.38210
 2018-Sep-13 06:18  m  05 52 58.684970 +22 01 00.33759
 2018-Sep-13 06:19  m  05 52 58.730855 +22 01 00.29310
 2018-Sep-13 06:20  m  05 52 58.776738 +22 01 00.24863
 2018-Sep-13 06:21  m  05 52 58.822619 +22 01 00.20417
 2018-Sep-13 06:22  m  05 52 58.868497 +22 01 00.15973
 2018-Sep-13 06:23  m  05 52 58.914374 +22 01 00.11531
 2018-Sep-13 06:24  m  05 52 58.960249 +22 01 00.07091
 2018-Sep-13 06:25  m  05 52 59.006122 +22 01 00.02653
 2018-Sep-13 06:26  m  05 52 59.051992 +22 00 59.98216
 2018-Sep-13 06:27  m  05 52 59.097861 +22 00 59.93782
 2018-Sep-13 06:28  m  05 52 59.143727 +22 00 59.89349
 2018-Sep-13 06:29  m  05 52 59.189592 +22 00 59.84918
 2018-Sep-13 06:30  m  05 52 59.235454 +22 00 59.80488
 2018-Sep-13 06:31  m  05 52 59.281314 +22 00 59.76061
 2018-Sep-13 06:32  m  05 52 59.327172 +22 00 59.71635
 2018-Sep-13 06:33  m  05 52 59.373028 +22 00 59.67211
 2018-Sep-13 06:34  m  05 52 59.418881 +22 00 59.62788
 2018-Sep-13 06:35  m  05 52 59.464732 +22 00 59.58368
 2018-Sep-13 06:36  m  05 52 59.510581 +22 00 59.53949
 2018-Sep-13 06:37  m  05 52 59.556428 +22 00 59.49532
 2018-Sep-13 06:38  m  05 52 59.602273 +22 00 59.45117
